STARLINK-4763           
1 53805U 22111AJ  26068.81410105  .00001486  00000+0  11145-3 0  9993
2 53805  53.2160 248.6923 0001214  94.8468 265.2663 15.08839551194044
DISKSAT A               
1 67222U 25305D   26068.54789610  .00013824  00000+0  90452-3 0  9996
2 67222  45.0023 251.6019 0004082 318.1929  41.8634 15.07741062 12266
